SENTINEL-6              
1 46984U 20086A   23200.37893742 -.00000064  00000+0 -14303-4 0  9993
2 46984  66.0391 184.5926 0008101 269.1284  90.8803 12.80930682124201
